{
  "type": "FeatureCollection",
  "features": [
    {
      "type": "Feature",
      "properties": {
        "norad_id": 36736,
        "name": "FENGYUN 1C DEB",
        "group": "fengyun-1c-debris",
        "lat": -64.16825296306772,
        "lon": -123.92683276453893,
        "alt_km": 850.2867880036192,
        "timestamp": "2025-12-27T05:29:39.491799+00:00",
        "meta_object_name": "FENGYUN 1C DEB",
        "meta_object_id": "1999-025EBJ",
        "meta_epoch": "2025-12-19T22:50:38.532768",
        "meta_mean_motion": 14.25518256,
        "meta_eccentricity": 0.00607429,
        "meta_inclination": 98.8062,
        "meta_ra_of_asc_node": 67.4431,
        "meta_arg_of_pericenter": 119.7313,
        "meta_mean_anomaly": 240.9929,
        "meta_ephemeris_type": 0,
        "meta_classification_type": "U",
        "meta_norad_cat_id": 36736,
        "meta_element_set_no": 999,
        "meta_rev_at_epoch": 88718,
        "meta_bstar": 0.0010514399,
        "meta_mean_motion_dot": 2.49e-05,
        "meta_mean_motion_ddot": 0,
        "tle_line1": "1 36736U 99025EBJ 25353.95183487  .00002490  00000+0  10514-2 0  9990",
        "tle_line2": "2 36736  98.8062  67.4431 0060742 119.7313 240.9929 14.25518256887185"
      },
      "geometry": {
        "type": "Point",
        "coordinates": [
          -123.92683276453893,
          -64.16825296306772
        ]
      }
    },
    {
      "type": "Feature",
      "properties": {
        "norad_id": 36743,
        "name": "FENGYUN 1C DEB",
        "group": "fengyun-1c-debris",
        "lat": 73.39100854015939,
        "lon": -99.89916673214104,
        "alt_km": 810.8163884389396,
        "timestamp": "2025-12-27T05:29:39.491809+00:00",
        "meta_object_name": "FENGYUN 1C DEB",
        "meta_object_id": "1999-025EBR",
        "meta_epoch": "2025-12-15T20:48:16.336800",
        "meta_mean_motion": 14.29116099,
        "meta_eccentricity": 0.0047177,
        "meta_inclination": 98.6557,
        "meta_ra_of_asc_node": 38.1117,
        "meta_arg_of_pericenter": 3.5743,
        "meta_mean_anomaly": 356.5766,
        "meta_ephemeris_type": 0,
        "meta_classification_type": "U",
        "meta_norad_cat_id": 36743,
        "meta_element_set_no": 999,
        "meta_rev_at_epoch": 60782,
        "meta_bstar": 0.00095050245,
        "meta_mean_motion_dot": 2.395e-05,
        "meta_mean_motion_ddot": 0,
        "tle_line1": "1 36743U 99025EBR 25349.86685575  .00002395  00000+0  95050-3 0  9991",
        "tle_line2": "2 36743  98.6557  38.1117 0047177   3.5743 356.5766 14.29116099607827"
      },
      "geometry": {
        "type": "Point",
        "coordinates": [
          -99.89916673214104,
          73.39100854015939
        ]
      }
    },
    {
      "type": "Feature",
      "properties": {
        "norad_id": 36986,
        "name": "FENGYUN 1C DEB",
        "group": "fengyun-1c-debris",
        "lat": 26.652493546355416,
        "lon": 62.943765060607724,
        "alt_km": 905.578380608019,
        "timestamp": "2025-12-27T05:29:39.491819+00:00",
        "meta_object_name": "FENGYUN 1C DEB",
        "meta_object_id": "1999-025EBS",
        "meta_epoch": "2025-12-20T22:17:23.796096",
        "meta_mean_motion": 14.14646349,
        "meta_eccentricity": 0.0088071,
        "meta_inclination": 99.1446,
        "meta_ra_of_asc_node": 61.1301,
        "meta_arg_of_pericenter": 219.0076,
        "meta_mean_anomaly": 140.4722,
        "meta_ephemeris_type": 0,
        "meta_classification_type": "U",
        "meta_norad_cat_id": 36986,
        "meta_element_set_no": 999,
        "meta_rev_at_epoch": 81860,
        "meta_bstar": 0.0013942,
        "meta_mean_motion_dot": 2.737e-05,
        "meta_mean_motion_ddot": 0,
        "tle_line1": "1 36986U 99025EBS 25354.92874764  .00002737  00000+0  13942-2 0  9992",
        "tle_line2": "2 36986  99.1446  61.1301 0088071 219.0076 140.4722 14.14646349818603"
      },
      "geometry": {
        "type": "Point",
        "coordinates": [
          62.943765060607724,
          26.652493546355416
        ]
      }
    },
    {
      "type": "Feature",
      "properties": {
        "norad_id": 36987,
        "name": "FENGYUN 1C DEB",
        "group": "fengyun-1c-debris",
        "lat": -47.91785621442114,
        "lon": -104.62832841895259,
        "alt_km": 974.4485652200929,
        "timestamp": "2025-12-27T05:29:39.491830+00:00",
        "meta_object_name": "FENGYUN 1C DEB",
        "meta_object_id": "1999-025EBT",
        "meta_epoch": "2025-12-26T22:35:22.948512",
        "meta_mean_motion": 13.45908145,
        "meta_eccentricity": 0.03207084,
        "meta_inclination": 100.8193,
        "meta_ra_of_asc_node": 242.8356,
        "meta_arg_of_pericenter": 13.3304,
        "meta_mean_anomaly": 347.6056,
        "meta_ephemeris_type": 0,
        "meta_classification_type": "U",
        "meta_norad_cat_id": 36987,
        "meta_element_set_no": 999,
        "meta_rev_at_epoch": 61068,
        "meta_bstar": 0.0014400566,
        "meta_mean_motion_dot": 1.122e-05,
        "meta_mean_motion_ddot": 0,
        "tle_line1": "1 36987U 99025EBT 25360.94123783  .00001122  00000+0  14401-2 0  9998",
        "tle_line2": "2 36987 100.8193 242.8356 0320708  13.3304 347.6056 13.45908145610683"
      },
      "geometry": {
        "type": "Point",
        "coordinates": [
          -104.62832841895259,
          -47.91785621442114
        ]
      }
    },
    {
      "type": "Feature",
      "properties": {
        "norad_id": 36990,
        "name": "FENGYUN 1C DEB",
        "group": "fengyun-1c-debris",
        "lat": -0.6178939417710624,
        "lon": -54.94457227170977,
        "alt_km": 840.2973506089029,
        "timestamp": "2025-12-27T05:29:39.491840+00:00",
        "meta_object_name": "FENGYUN 1C DEB",
        "meta_object_id": "1999-025EBW",
        "meta_epoch": "2025-12-05T02:36:38.289600",
        "meta_mean_motion": 13.56914719,
        "meta_eccentricity": 0.0292772,
        "meta_inclination": 96.5839,
        "meta_ra_of_asc_node": 290.134,
        "meta_arg_of_pericenter": 44.0413,
        "meta_mean_anomaly": 318.3658,
        "meta_ephemeris_type": 0,
        "meta_classification_type": "U",
        "meta_norad_cat_id": 36990,
        "meta_element_set_no": 999,
        "meta_rev_at_epoch": 82784,
        "meta_bstar": 0.0013157618,
        "meta_mean_motion_dot": 1.212e-05,
        "meta_mean_motion_ddot": 0,
        "tle_line1": "1 36990U 99025EBW 25339.10877650  .00001212  00000+0  13158-2 0  9993",
        "tle_line2": "2 36990  96.5839 290.1340 0292772  44.0413 318.3658 13.56914719827842"
      },
      "geometry": {
        "type": "Point",
        "coordinates": [
          -54.94457227170977,
          -0.6178939417710624
        ]
      }
    },
    {
      "type": "Feature",
      "properties": {
        "norad_id": 36994,
        "name": "FENGYUN 1C DEB",
        "group": "fengyun-1c-debris",
        "lat": 55.73202392957784,
        "lon": 155.37970276226113,
        "alt_km": 973.4936362016078,
        "timestamp": "2025-12-27T05:29:39.491850+00:00",
        "meta_object_name": "FENGYUN 1C DEB",
        "meta_object_id": "1999-025ECA",
        "meta_epoch": "2025-12-24T04:22:34.357440",
        "meta_mean_motion": 13.90790861,
        "meta_eccentricity": 0.01144801,
        "meta_inclination": 98.6443,
        "meta_ra_of_asc_node": 319.643,
        "meta_arg_of_pericenter": 261.4355,
        "meta_mean_anomaly": 97.382,
        "meta_ephemeris_type": 0,
        "meta_classification_type": "U",
        "meta_norad_cat_id": 36994,
        "meta_element_set_no": 999,
        "meta_rev_at_epoch": 81066,
        "meta_bstar": 0.00017123213,
        "meta_mean_motion_dot": 1.85e-06,
        "meta_mean_motion_ddot": 0,
        "tle_line1": "1 36994U 99025ECA 25358.18234210  .00000185  00000+0  17123-3 0  9990",
        "tle_line2": "2 36994  98.6443 319.6430 0114480 261.4355  97.3820 13.90790861810661"
      },
      "geometry": {
        "type": "Point",
        "coordinates": [
          155.37970276226113,
          55.73202392957784
        ]
      }
    },
    {
      "type": "Feature",
      "properties": {
        "norad_id": 36995,
        "name": "FENGYUN 1C DEB",
        "group": "fengyun-1c-debris",
        "lat": 41.50877385848039,
        "lon": -128.6872314932832,
        "alt_km": 892.4558296345404,
        "timestamp": "2025-12-27T05:29:39.491860+00:00",
        "meta_object_name": "FENGYUN 1C DEB",
        "meta_object_id": "1999-025ECB",
        "meta_epoch": "2025-12-21T10:50:27.809664",
        "meta_mean_motion": 14.04870407,
        "meta_eccentricity": 0.00383848,
        "meta_inclination": 98.3428,
        "meta_ra_of_asc_node": 233.4615,
        "meta_arg_of_pericenter": 285.703,
        "meta_mean_anomaly": 73.9907,
        "meta_ephemeris_type": 0,
        "meta_classification_type": "U",
        "meta_norad_cat_id": 36995,
        "meta_element_set_no": 999,
        "meta_rev_at_epoch": 63679,
        "meta_bstar": 0.0002276039,
        "meta_mean_motion_dot": 3.29e-06,
        "meta_mean_motion_ddot": 0,
        "tle_line1": "1 36995U 99025ECB 25355.45171076  .00000329  00000+0  22760-3 0  9991",
        "tle_line2": "2 36995  98.3428 233.4615 0038384 285.7030  73.9907 14.04870407636794"
      },
      "geometry": {
        "type": "Point",
        "coordinates": [
          -128.6872314932832,
          41.50877385848039
        ]
      }
    }
  ]
}